start=new Date('2021-08-22T00:00:00.000Z').valueOf();
sats=[{"GP_ID":"183214004","TLE_LINE2":"2 48304  53.0566 348.2879 0001152 136.4228 223.6852 15.06394573 17810","SEMIMAJOR_AXIS":"6925.365","MEAN_MOTION_DOT":"-0.00000856","APOAPSIS":"548.028","CLASSIFICATION_TYPE":"U","EPHEMERIS_TYPE":"0","RCS_SIZE":"LARGE","MEAN_MOTION_DDOT":"0.0000000000000","OBJECT_ID":"2021-036AE","COUNTRY_CODE":"US","LAUNCH_DATE":"2021-04-29","ARG_OF_PERICENTER":"136.4228","ELEMENT_SET_NO":"999","REV_AT_EPOCH":"1781","SITE":"AFETR","MEAN_ANOMALY":"223.6852","BSTAR":"-0.00003859400000","TIME_SYSTEM":"UTC","INCLINATION":"53.0566","OBJECT_TYPE":"PAYLOAD","ECCENTRICITY":"0.00011520","NORAD_CAT_ID":"48304","TLE_LINE1":"1 48304U 21036AE  21233.65437398 -.00000856  00000-0 -38594-4 0  9991","EPOCH":"2021-08-21T15:42:17.911872","MEAN_MOTION":"15.06394573","OBJECT_NAME":"STARLINK-2524","CENTER_NAME":"EARTH","PERIOD":"95.592","PERIAPSIS":"546.432","MEAN_ELEMENT_THEORY":"SGP4","RA_OF_ASC_NODE":"348.2879","DECAY_DATE":null,"FILE":"3101032","REF_FRAME":"TEME"},{"CENTER_NAME":"EARTH","TLE_LINE1":"1 48305U 21036AF  21233.78338377 -.00000395  00000-0 -76707-5 0  9990","MEAN_MOTION":"15.06395160","OBJECT_NAME":"STARLINK-2519","EPOCH":"2021-08-21T18:48:04.357728","DECAY_DATE":null,"FILE":"3101032","REF_FRAME":"TEME","PERIOD":"95.592","PERIAPSIS":"546.595","MEAN_ELEMENT_THEORY":"SGP4","RA_OF_ASC_NODE":"347.7047","TIME_SYSTEM":"UTC","INCLINATION":"53.0562","SITE":"AFETR","MEAN_ANOMALY":"227.0450","BSTAR":"-0.00000767070000","NORAD_CAT_ID":"48305","OBJECT_TYPE":"PAYLOAD","ECCENTRICITY":"0.00009140","ELEMENT_SET_NO":"999","COUNTRY_CODE":"US","LAUNCH_DATE":"2021-04-29","ARG_OF_PERICENTER":"133.0615","REV_AT_EPOCH":"1783","SEMIMAJOR_AXIS":"6925.363","MEAN_MOTION_DOT":"-0.00000395","APOAPSIS":"547.861","GP_ID":"183214753","TLE_LINE2":"2 48305  53.0562 347.7047 0000914 133.0615 227.0450 15.06395160 17833","RCS_SIZE":"LARGE","MEAN_MOTION_DDOT":"0.0000000000000","OBJECT_ID":"2021-036AF","CLASSIFICATION_TYPE":"U","EPHEMERIS_TYPE":"0"},{"REV_AT_EPOCH":"1784","LAUNCH_DATE":"2021-04-29","COUNTRY_CODE":"US","ARG_OF_PERICENTER":"129.8000","ELEMENT_SET_NO":"999","EPHEMERIS_TYPE":"0","CLASSIFICATION_TYPE":"U","RCS_SIZE":"LARGE","OBJECT_ID":"2021-036AG","MEAN_MOTION_DDOT":"0.0000000000000","GP_ID":"183214502","TLE_LINE2":"2 48306  53.0571 347.4268 0001109 129.8000 230.3087 15.06393200 17841","MEAN_MOTION_DOT":"-0.00001034","SEMIMAJOR_AXIS":"6925.369","APOAPSIS":"548.002","PERIAPSIS":"546.466","PERIOD":"95.593","RA_OF_ASC_NODE":"347.4268","MEAN_ELEMENT_THEORY":"SGP4","DECAY_DATE":null,"FILE":"3101032","REF_FRAME":"TEME","OBJECT_NAME":"STARLINK-2523","TLE_LINE1":"1 48306U 21036AG  21233.84604389 -.00001034  00000-0 -50582-4 0  9990","MEAN_MOTION":"15.06393200","EPOCH":"2021-08-21T20:18:18.192096","CENTER_NAME":"EARTH","OBJECT_TYPE":"PAYLOAD","ECCENTRICITY":"0.00011090","NORAD_CAT_ID":"48306","BSTAR":"-0.00005058200000","MEAN_ANOMALY":"230.3087","SITE":"AFETR","INCLINATION":"53.0571","TIME_SYSTEM":"UTC"},{"APOAPSIS":"548.001","SEMIMAJOR_AXIS":"6925.363","MEAN_MOTION_DOT":"-0.00000746","TLE_LINE2":"2 48307  53.0565 346.5469 0001116 153.0955 207.0092 15.06395298 18469","GP_ID":"183217245","MEAN_MOTION_DDOT":"0.0000000000000","OBJECT_ID":"2021-036AH","RCS_SIZE":"LARGE","CLASSIFICATION_TYPE":"U","EPHEMERIS_TYPE":"0","ELEMENT_SET_NO":"999","ARG_OF_PERICENTER":"153.0955","COUNTRY_CODE":"US","LAUNCH_DATE":"2021-04-29","REV_AT_EPOCH":"1846","TIME_SYSTEM":"UTC","INCLINATION":"53.0565","SITE":"AFETR","MEAN_ANOMALY":"207.0092","BSTAR":"-0.00003120900000","NORAD_CAT_ID":"48307","ECCENTRICITY":"0.00011160","OBJECT_TYPE":"PAYLOAD","CENTER_NAME":"EARTH","EPOCH":"2021-08-22T00:59:36.923712","TLE_LINE1":"1 48307U 21036AH  21234.04139958 -.00000746  00000-0 -31209-4 0  9993","MEAN_MOTION":"15.06395298","OBJECT_NAME":"STARLINK-2528","REF_FRAME":"TEME","DECAY_DATE":null,"FILE":"3101083","MEAN_ELEMENT_THEORY":"SGP4","RA_OF_ASC_NODE":"346.5469","PERIOD":"95.592","PERIAPSIS":"546.455"},{"ECCENTRICITY":"0.00010310","OBJECT_TYPE":"PAYLOAD","NORAD_CAT_ID":"48308","BSTAR":"0.00008925600000","SITE":"AFETR","MEAN_ANOMALY":"214.7767","INCLINATION":"53.0570","TIME_SYSTEM":"UTC","RA_OF_ASC_NODE":"347.4589","MEAN_ELEMENT_THEORY":"SGP4","PERIAPSIS":"546.494","PERIOD":"95.592","REF_FRAME":"TEME","DECAY_DATE":null,"FILE":"3101032","MEAN_MOTION":"15.06401934","TLE_LINE1":"1 48308U 21036AJ  21233.83866459  .00001048  00000-0  89256-4 0  9992","EPOCH":"2021-08-21T20:07:40.620576","OBJECT_NAME":"STARLINK-2532","CENTER_NAME":"EARTH","EPHEMERIS_TYPE":"0","CLASSIFICATION_TYPE":"U","OBJECT_ID":"2021-036AJ","MEAN_MOTION_DDOT":"0.0000000000000","RCS_SIZE":"LARGE","TLE_LINE2":"2 48308  53.0570 347.4589 0001031 145.3289 214.7767 15.06401934 17849","GP_ID":"183213504","APOAPSIS":"547.922","MEAN_MOTION_DOT":"0.00001048","SEMIMAJOR_AXIS":"6925.343","REV_AT_EPOCH":"1784","ARG_OF_PERICENTER":"145.3289","LAUNCH_DATE":"2021-04-29","COUNTRY_CODE":"US","ELEMENT_SET_NO":"999"},{"OBJECT_ID":"2021-036AK","MEAN_MOTION_DDOT":"0.0000000000000","RCS_SIZE":"LARGE","EPHEMERIS_TYPE":"0","CLASSIFICATION_TYPE":"U","APOAPSIS":"547.994","MEAN_MOTION_DOT":"-0.00000562","SEMIMAJOR_AXIS":"6925.371","TLE_LINE2":"2 48309  53.0583 346.5878 0001095 125.2805 234.8287 15.06392755 18465","GP_ID":"183216801","REV_AT_EPOCH":"1846","ELEMENT_SET_NO":"999","ARG_OF_PERICENTER":"125.2805","LAUNCH_DATE":"2021-04-29","COUNTRY_CODE":"US","NORAD_CAT_ID":"48309","ECCENTRICITY":"0.00010950","OBJECT_TYPE":"PAYLOAD","INCLINATION":"53.0583","TIME_SYSTEM":"UTC","BSTAR":"-0.00001887900000","MEAN_ANOMALY":"234.8287","SITE":"AFETR","REF_FRAME":"TEME","DECAY_DATE":null,"FILE":"3101087","RA_OF_ASC_NODE":"346.5878","MEAN_ELEMENT_THEORY":"SGP4","PERIAPSIS":"546.477","PERIOD":"95.593","CENTER_NAME":"EARTH","MEAN_MOTION":"15.06392755","TLE_LINE1":"1 48309U 21036AK  21234.03402960 -.00000562  00000-0 -18879-4 0  9994","EPOCH":"2021-08-22T00:49:00.157440","OBJECT_NAME":"STARLINK-2517"},{"MEAN_ANOMALY":"224.3790","SITE":"AFETR","BSTAR":"-0.00003306300000","TIME_SYSTEM":"UTC","INCLINATION":"53.0560","ECCENTRICITY":"0.00010150","OBJECT_TYPE":"PAYLOAD","NORAD_CAT_ID":"48310","TLE_LINE1":"1 48310U 21036AL  21233.83130282 -.00000774  00000-0 -33063-4 0  9995","EPOCH":"2021-08-21T19:57:04.563648","MEAN_MOTION":"15.06391466","OBJECT_NAME":"STARLINK-2536","CENTER_NAME":"EARTH","MEAN_ELEMENT_THEORY":"SGP4","RA_OF_ASC_NODE":"347.4900","PERIOD":"95.593","PERIAPSIS":"546.537","REF_FRAME":"TEME","FILE":"3101032","DECAY_DATE":null,"TLE_LINE2":"2 48310  53.0560 347.4900 0001015 135.7281 224.3790 15.06391466 17846","GP_ID":"183215003","APOAPSIS":"547.943","SEMIMAJOR_AXIS":"6925.375","MEAN_MOTION_DOT":"-0.00000774","CLASSIFICATION_TYPE":"U","EPHEMERIS_TYPE":"0","MEAN_MOTION_DDOT":"0.0000000000000","OBJECT_ID":"2021-036AL","RCS_SIZE":"LARGE","ARG_OF_PERICENTER":"135.7281","COUNTRY_CODE":"US","LAUNCH_DATE":"2021-04-29","ELEMENT_SET_NO":"999","REV_AT_EPOCH":"1784"},{"REV_AT_EPOCH":"1851","ELEMENT_SET_NO":"999","LAUNCH_DATE":"2021-04-29","COUNTRY_CODE":"US","ARG_OF_PERICENTER":"125.1407","RCS_SIZE":"LARGE","OBJECT_ID":"2021-036AM","MEAN_MOTION_DDOT":"0.0000000000000","EPHEMERIS_TYPE":"0","CLASSIFICATION_TYPE":"U","MEAN_MOTION_DOT":"-0.00000489","SEMIMAJOR_AXIS":"6925.351","APOAPSIS":"547.911","GP_ID":"183216806","TLE_LINE2":"2 48311  53.0572 346.6173 0001003 125.1407 234.9676 15.06399150 18516","DECAY_DATE":null,"FILE":"3101087","REF_FRAME":"TEME","PERIAPSIS":"546.522","PERIOD":"95.592","RA_OF_ASC_NODE":"346.6173","MEAN_ELEMENT_THEORY":"SGP4","CENTER_NAME":"EARTH","EPOCH":"2021-08-22T00:38:22.941888","TLE_LINE1":"1 48311U 21036AM  21234.02665442 -.00000489  00000-0 -13919-4 0  9990","MEAN_MOTION":"15.06399150","OBJECT_NAME":"STARLINK-2534","NORAD_CAT_ID":"48311","OBJECT_TYPE":"PAYLOAD","ECCENTRICITY":"0.00010030","INCLINATION":"53.0572","TIME_SYSTEM":"UTC","BSTAR":"-0.00001391900000","MEAN_ANOMALY":"234.9676","SITE":"AFETR"},{"EPHEMERIS_TYPE":"0","CLASSIFICATION_TYPE":"U","RCS_SIZE":"LARGE","OBJECT_ID":"2021-036AN","MEAN_MOTION_DDOT":"0.0000000000000","GP_ID":"183217318","TLE_LINE2":"2 48312  53.0576 346.6366 0001014 127.4767 232.6315 15.06398744 18514","MEAN_MOTION_DOT":"0.00001045","SEMIMAJOR_AXIS":"6925.352","APOAPSIS":"547.920","REV_AT_EPOCH":"1851","LAUNCH_DATE":"2021-04-29","COUNTRY_CODE":"US","ARG_OF_PERICENTER":"127.4767","ELEMENT_SET_NO":"999","OBJECT_TYPE":"PAYLOAD","ECCENTRICITY":"0.00010140","NORAD_CAT_ID":"48312","BSTAR":"0.00008901100000","SITE":"AFETR","MEAN_ANOMALY":"232.6315","INCLINATION":"53.0576","TIME_SYSTEM":"UTC","PERIAPSIS":"546.515","PERIOD":"95.592","RA_OF_ASC_NODE":"346.6366","MEAN_ELEMENT_THEORY":"SGP4","DECAY_DATE":null,"FILE":"3101088","REF_FRAME":"TEME","TLE_LINE1":"1 48312U 21036AN  21234.02296608  .00001045  00000-0  89011-4 0  9998","MEAN_MOTION":"15.06398744","EPOCH":"2021-08-22T00:33:04.269312","OBJECT_NAME":"STARLINK-2061","CENTER_NAME":"EARTH"},{"OBJECT_TYPE":"PAYLOAD","ECCENTRICITY":"0.00011120","NORAD_CAT_ID":"48313","SITE":"AFETR","MEAN_ANOMALY":"221.2974","BSTAR":"0.00009168900000","TIME_SYSTEM":"UTC","INCLINATION":"53.0587","PERIOD":"95.593","PERIAPSIS":"546.468","MEAN_ELEMENT_THEORY":"SGP4","RA_OF_ASC_NODE":"347.8496","FILE":"3101032","DECAY_DATE":null,"REF_FRAME":"TEME","EPOCH":"2021-08-21T18:05:36.341376","TLE_LINE1":"1 48313U 21036AP  21233.75389284  .00001084  00000-0  91689-4 0  9998","MEAN_MOTION":"15.06392153","OBJECT_NAME":"STARLINK-2541","CENTER_NAME":"EARTH","CLASSIFICATION_TYPE":"U","EPHEMERIS_TYPE":"0","RCS_SIZE":"LARGE","MEAN_MOTION_DDOT":"0.0000000000000","OBJECT_ID":"2021-036AP","GP_ID":"183214754","TLE_LINE2":"2 48313  53.0587 347.8496 0001112 138.8099 221.2974 15.06392153 17823","SEMIMAJOR_AXIS":"6925.373","MEAN_MOTION_DOT":"0.00001084","APOAPSIS":"548.008","REV_AT_EPOCH":"1782","COUNTRY_CODE":"US","LAUNCH_DATE":"2021-04-29","ARG_OF_PERICENTER":"138.8099","ELEMENT_SET_NO":"999"}];
